ONEWEB-0156             
1 48052U 21025L   26075.18149569  .00000410  00000+0  10876-2 0  9990
2 48052  87.9039 338.7180 0001794  74.5059 285.6268 13.13470516241362
ONEWEB-0161             
1 48053U 21025M   26075.15610047 -.00000280  00000+0 -80232-3 0  9993
2 48053  87.9033 338.7315 0001779  68.3798 291.7521 13.13472403241290
ONEWEB-0158             
1 48054U 21025N   26075.19165029  .00000226  00000+0  58418-3 0  9992
2 48054  87.9040 338.7157 0001700  89.8163 270.3161 13.13470622241420
ONEWEB-0157             
1 48055U 21025P   26075.14086303 -.00000278  00000+0 -79508-3 0  9997
2 48055  87.9040 338.7302 0002103  72.0613 288.0745 13.13470646241357
ONEWEB-0162             
1 48056U 21025Q   26075.19319935  .00000143  00000+0  35802-3 0  9991
2 48056  87.9040 338.7243 0001684  74.4111 285.7204 13.13468624241339
ONEWEB-0155             
1 48057U 21025R   26075.20011636 -.00000015  00000+0 -75529-4 0  9992
2 48057  87.9034 338.7217 0001923  78.8871 281.2475 13.13469761241470
ONEWEB-0149             
1 48058U 21025S   26075.14593814 -.00000231  00000+0 -66874-3 0  9991
2 48058  87.9040 338.7296 0001625  72.5107 287.6200 13.13471207241279
ONEWEB-0148             
1 48059U 21025T   26075.18486721  .00000372  00000+0  98258-3 0  9999
2 48059  87.9032 338.7361 0001645  58.4276 301.7013 13.13472025241400
ONEWEB-0160             
1 48060U 21025U   26075.20179915 -.00000055  00000+0 -18561-3 0  9997
2 48060  87.9031 338.7291 0001349 103.2305 256.8975 13.13470507241350
ONEWEB-0163             
1 48061U 21025V   26075.18657354  .00000341  00000+0  89970-3 0  9991
2 48061  87.9033 338.7246 0002007  74.2681 285.8670 13.13470842241478
ONEWEB-0159             
1 48062U 21025W   26075.17811056  .00000303  00000+0  79444-3 0  9995
2 48062  87.9041 338.7132 0001848  72.1801 287.9530 13.13469677241398
ONEWEB-0164             
1 48063U 21025X   26075.15948348  .00000078  00000+0  17794-3 0  9998
2 48063  87.9043 338.7235 0001727  81.3184 278.8141 13.13471141241371
ONEWEB-0167             
1 48064U 21025Y   26075.18743055  .00000278  00000+0  72735-3 0  9998
2 48064  87.9031 338.7365 0002407  84.3072 275.8331 13.13471347241363
ONEWEB-0166             
1 48065U 21025Z   26075.13408641 -.00000246  00000+0 -70809-3 0  9990
2 48065  87.9041 338.7103 0001723  72.4140 287.7178 13.13470944241430
ONEWEB-0151             
1 48066U 21025AA  26075.13578879 -.00000251  00000+0 -72238-3 0  9996
2 48066  87.9033 338.7354 0001852  81.0265 279.1074 13.13470322241370
ONEWEB-0170             
1 48067U 21025AB  26075.14424428 -.00000237  00000+0 -68400-3 0  9998
2 48067  87.9031 338.7350 0001831  93.8491 266.2847 13.13471138241331
ONEWEB-0168             
1 48068U 21025AC  26075.20518611 -.00000128  00000+0 -38553-3 0  9999
2 48068  87.9038 338.7151 0001880  74.1397 285.9939 13.13470440241356
ONEWEB-0173             
1 48069U 21025AD  26075.19672919  .00000031  00000+0  50983-4 0  9993
2 48069  87.9037 338.7235 0002135  75.8761 284.2606 13.13470936241595
ONEWEB-0171             
1 48070U 21025AE  26075.15778415  .00000112  00000+0  27223-3 0  9999
2 48070  87.9029 338.7429 0001791  80.8656 279.2676 13.13470175241405
ONEWEB-0172             
1 48071U 21025AF  26075.13747542 -.00000277  00000+0 -79364-3 0  9992
2 48071  87.9032 338.7340 0001905  79.8799 280.2545 13.13470863242294
ONEWEB-0174             
1 48072U 21025AG  26075.19503692  .00000143  00000+0  35631-3 0  9994
2 48072  87.9030 338.7241 0001736  72.8194 287.3125 13.13469832241629
ONEWEB-0175             
1 48073U 21025AH  26075.14932970 -.00000169  00000+0 -49870-3 0  9995
2 48073  87.9037 338.7092 0001963  87.3965 272.7389 13.13470956241270
ONEWEB-0177             
1 48074U 21025AJ  26075.16117395  .00000109  00000+0  26301-3 0  9990
2 48074  87.9036 338.7282 0001886  73.2625 286.8711 13.13471460241469
ONEWEB-0178             
1 48075U 21025AK  26075.17994085  .00000365  00000+0  96319-3 0  9991
2 48075  87.9019 338.7507 0002009  81.6777 278.4580 13.13470864241514
ONEWEB-0108             
1 48076U 21025AL  26075.13916482 -.00000203  00000+0 -58970-3 0  9997
2 48076  87.9039 338.7205 0001523  76.8598 283.2701 13.13470908241438
ONEWEB-0169             
1 48077U 21025AM  26075.17133308  .00000346  00000+0  91157-3 0  9990
2 48077  87.9030 338.7297 0001525  77.5110 282.6190 13.13470562240093
ONEWEB-0176             
1 48210U 21031A   26075.16306039  .00000199  00000+0  50119-3 0  9997
2 48210  87.8972 308.2644 0001762  83.3000 276.8330 13.14503439236097
ONEWEB-0184             
1 48211U 21031B   26075.13609262 -.00000150  00000+0 -43839-3 0  9999
2 48211  87.8987 308.2609 0002409  95.5100 264.6305 13.14503646236064
ONEWEB-0179             
1 48212U 21031C   26075.18287730  .00000185  00000+0  46396-3 0  9994
2 48212  87.8978 308.2534 0001700  73.6901 286.4415 13.14503505236115
ONEWEB-0180             
1 48213U 21031D   26075.13926632 -.00000097  00000+0 -29574-3 0  9994
2 48213  87.8979 308.2631 0001963  78.0809 282.0541 13.14503455235993
ONEWEB-0218             
1 48214U 21031E   26075.16147653  .00000271  00000+0  69661-3 0  9999
2 48214  87.8973 308.2579 0002516  89.1744 270.9674 13.14503654236158
ONEWEB-0209             
1 48215U 21031F   26075.15036712 -.00000004  00000+0 -44402-4 0  9995
2 48215  87.8964 308.2863 0001777  76.4147 283.7181 13.14503391236152
ONEWEB-0198             
1 48216U 21031G   26075.13464809 -.00000119  00000+0 -35653-3 0  9990
2 48216  87.8970 308.2888 0002106  79.3782 280.7585 13.14502984236265
ONEWEB-0189             
1 48217U 21031H   26075.14719779  .00000002  00000+0 -29058-4 0  9994
2 48217  87.8976 308.2633 0002041  80.8861 279.2499 13.14503489236003
ONEWEB-0196             
1 48218U 21031J   26075.20110837 -.00000104  00000+0 -31381-3 0  9997
2 48218  87.8976 308.2634 0001796  79.5906 280.5426 13.14503804236013
ONEWEB-0183             
1 48219U 21031K   26075.17574251  .00000314  00000+0  81123-3 0  9998
2 48219  87.8974 308.2686 0001499  76.0021 284.1275 13.14502950236102
ONEWEB-0185             
1 48220U 21031L   26075.12578526 -.00000176  00000+0 -50862-3 0  9998
2 48220  87.8979 308.2640 0001695  68.1881 291.9429 13.14502239236021
ONEWEB-0187             
1 48221U 21031M   26075.18194737  .00000251  00000+0  64118-3 0  9994
2 48221  87.8965 308.2846 0001812  74.6777 285.4553 13.14503037236047
ONEWEB-0192             
1 48222U 21031N   26075.15195242  .00000078  00000+0  17571-3 0  9992
2 48222  87.8961 308.2795 0001753  83.4764 276.6565 13.14503384235954
ONEWEB-0219             
1 48223U 21031P   26075.13133209 -.00000117  00000+0 -35069-3 0  9994
2 48223  87.8975 308.2691 0001740  73.8188 286.3134 13.14503756236150
ONEWEB-0202             
1 48224U 21031Q   26075.11230337  .00000072  00000+0  15980-3 0  9991
2 48224  87.8975 308.2819 0002352  87.5149 272.6250 13.14501432236136
ONEWEB-0204             
1 48225U 21031R   26075.14639293  .00000016  00000+0  85093-5 0  9991
2 48225  87.8973 308.2690 0001448  73.7419 286.3870 13.14504487236036
ONEWEB-0205             
1 48226U 21031S   26075.19793833 -.00000070  00000+0 -22247-3 0  9990
2 48226  87.8976 308.2511 0001742  76.2614 283.8710 13.14503412236058
ONEWEB-0206             
1 48227U 21031T   26075.17098241  .00000291  00000+0  75001-3 0  9999
2 48227  87.8982 308.2569 0001594  91.0055 269.1257 13.14503692236006
ONEWEB-0182             
1 48228U 21031U   26075.16622914  .00000221  00000+0  56034-3 0  9997
2 48228  87.8972 308.2700 0001476  76.7781 283.3514 13.14503101236210
ONEWEB-0186             
1 48229U 21031V   26075.17732862  .00000255  00000+0  65437-3 0  9997
2 48229  87.8977 308.2554 0001707  78.9718 281.1604 13.14503327236164
ONEWEB-0181             
1 48230U 21031W   26075.15512628 -.00000937  00000+0 -25612-2 0  9992
2 48230  87.8959 308.3005 0001623  79.4924 280.6389 13.14508795236012
ONEWEB-0188             
1 48231U 21031X   26075.19318525 -.00000040  00000+0 -14168-3 0  9997
2 48231  87.8967 308.2911 0001667  80.8595 279.2723 13.14502935235920
ONEWEB-0220             
1 48232U 21031Y   26075.15671176 -.00001796  00000+0 -48783-2 0  9996
2 48232  87.8976 308.2586 0001507  73.7939 286.3356 13.14513114236186
ONEWEB-0165             
1 48233U 21031Z   26075.18527335  .00000676  00000+0  17880-2 0  9995
2 48233  87.8977 308.2696 0002020  81.7069 278.4289 13.14500089236144
ONEWEB-0199             
1 48234U 21031AA  26075.16938833 -.00000540  00000+0 -14912-2 0  9998
2 48234  87.8970 308.2545 0001491  85.7688 274.3612 13.14500248236044
ONEWEB-0203             
1 48235U 21031AB  26075.15987661  .00000247  00000+0  63123-3 0  9992
2 48235  87.8982 308.2570 0001725  87.6698 272.4629 13.14504290236057
ONEWEB-0197             
1 48236U 21031AC  26075.13437039 -.00000183  00000+0 -52894-3 0  9994
2 48236  87.8974 308.2597 0001423  74.3548 285.7739 13.14503302235961
ONEWEB-0194             
1 48237U 21031AD  26075.19001641  .00000046  00000+0  89796-4 0  9995
2 48237  87.8976 308.2666 0001614  90.1974 269.9341 13.14502898236145
ONEWEB-0193             
1 48238U 21031AE  26075.20586571 -.00000182  00000+0 -52657-3 0  9996
2 48238  87.8976 308.2548 0001565  97.7829 262.3479 13.14503764236098
ONEWEB-0191             
1 48239U 21031AF  26075.14085032 -.00000093  00000+0 -28418-3 0  9995
2 48239  87.8978 308.2636 0001597  82.4410 277.6901 13.14503434235947
ONEWEB-0195             
1 48240U 21031AG  26075.19397691 -.00000025  00000+0 -10110-3 0  9994
2 48240  87.8976 308.2496 0002051  79.9620 280.1741 13.14503277235936
ONEWEB-0201             
1 48241U 21031AH  26075.10608676  .00000206  00000+0  52224-3 0  9995
2 48241  87.8965 308.2953 0001657  67.9612 292.1694 13.14500908236155
ONEWEB-0207             
1 48242U 21031AJ  26075.16226159  .00000279  00000+0  71719-3 0  9994
2 48242  87.8974 308.2566 0001587  72.6200 287.5103 13.14504865236074
